#dP2018  2 10  0  0  0.00000000      96 __u+U IGS08 FIT  IAC
## 1987 518400.00000000   900.00000000 58159 0.0000000000000
+   86   C01C02C03C04C05C06C07C09C10C11C12C13C14E01E02E03E04
+        E05E07E08E09E11E12E14E18E19E24E26E30G01G02G03G05G06
+        G07G08G09G10G11G12G13G14G15G16G17G19G20G21G22G23G24
+        G25G26G27G28G29G30G31G32J01J02J03R01R02R03R04R05R06
+        R07R08R09R10R11R13R14R15R16R17R18R19R20R21R22R23R24
+        R26  0  0  0  0  0  0  0  0  0  0  0  0  0  0  0  0
++        12 12 12 12 12  8  8  8  8  8  8  8  8  7  7  7  7
++         7  7  7  7  7  7  7  7  7  7  7  7  3  3  3  3  3
++         3  3  3  3  3  3  3  3  3  3  3  3  3  3  3  3  3
++         3  6  3  3  3  3  3  3 10 12 12  5  5  5  5  5  5
++         5  7  5  5  5  5  5  5  5  5  5  5  5  8  5  5  5
++         8  0  0  0  0  0  0  0  0  0  0  0  0  0  0  0  0
%c M  cc GPS ccc cccc cccc cccc cccc ccccc ccccc ccccc ccccc
%c cc cc ccc ccc cccc cccc cccc cccc ccccc ccccc ccccc ccccc
%f  1.2500000  1.025000000  0.00000000000  0.000000000000000
%f  0.0000000  0.000000000  0.00000000000  0.000000000000000
%i    0    0    0    0      0      0      0      0         0
%i    0    0    0    0      0      0      0      0         0
/* INFORMATION & ANALYSIS CENTER (IAC)            FINAL DATA
/* S/V CLOCKS ARE ALIGNED TO GPS & GLONASS TIME RESPECTIVELY
/* USING THE BROADCAST EPHEMERIS                            
/* PCV:IGS14_1984 OL/AL:FES2004  NONE     YN ORB:CoN CLK:CoN
*  2018 02 10 13 45  0.00000000
PC01 -32288.495633  27097.341250   1034.997309    349.795240
PC02   4425.093104  41938.899115   -216.955445   -216.660988
PC03 -14862.495910  39453.543502    994.464829   -117.333896
PC04 -39640.719358  14418.600140    513.193629   -117.084820
PC05  21891.987714  36035.013615   -401.102538   -147.240839
PC06 -12369.239231  21355.963308 -33978.440083   -680.243326
PC07 -24154.019527  31748.873331  13133.265276   -306.482959
PC09   3143.618621  27131.072692 -31907.688064   -416.974466
PC10 -11454.560160  32567.441373  24086.193869     -6.524372
PC11 -19094.864586 -16178.408254  12327.105655   -386.321193
PC12 -10311.436728 -25095.343412  -6257.591781    379.491727
PC13    559.170794  41766.203022   6643.371115   -197.202546
PC14 -23792.635438  -8015.541137  12295.340050    200.556581
PE01  16273.421882 -22735.089500  -9714.071335   -273.507101
PE02 -16268.348775  22744.001634   9728.269485      4.302636
PE03  -8506.286871  15121.082546 -23984.464076      2.431646
PE04 -13199.891074 -18668.078500  18801.836937     26.758324
PE05 -25302.942774   2698.269053 -15127.233726    324.652939
PE07  27250.961090  11274.826573  -2563.396662     86.625158
PE08  13390.884705  18432.154091 -18902.133092   6644.486531
PE09 -27337.296818 -11025.421107   2643.237729   6878.799725
PE11 -16655.264270 -14294.378985  19874.830094   1849.753472
PE12  -8398.560855 -28150.401818   3721.836670   3476.717337
PE14  16584.734276  19660.088402   1063.539078   6633.310270
PE18  -9676.776903 -26811.333961 -12501.940023   6437.990982
PE19  10454.085321 -14131.855177  23812.139834     19.272120
PE24 -18693.608214  -3372.615615 -22717.896506   6869.735116
PE26  15263.317805  -7543.227862 -24203.037079   6285.954178
PE30   1722.201628  18483.482184  23051.184345   6088.242789
PG01 -13474.366627  19222.020094  12005.360143    -28.074916
PG02  14687.314241   4062.064846 -21212.834261    204.130277
PG03 -20984.928649  12998.157403  -9753.433629      6.575403
PG05  25130.549782   -913.040726  -8965.091795    -14.671864
PG06   8974.651467  16655.754676 -18599.387990    414.623042
PG07  -4981.719151  25707.890599   2826.091831    238.807155
PG08 -17488.194003   2316.942832  19954.632083    -90.706582
PG09   1459.752458  19279.047900 -18243.995707    500.028076
PG10  -9083.428962 -12942.827449  21392.181645    158.142034
PG11 -10817.028378  16728.438537  17073.465241   -735.990780
PG12  22776.972290 -10635.123500  -8424.018446    351.021063
PG13  19940.868401   7328.516611  15815.579048    -95.579848
PG14 -18858.982910 -18605.487450  -2645.410571    -93.746556
PG15  17440.867326  -4450.767056  19434.633641   -357.071922
PG16 -25348.075026   -849.723920  -8723.903246     32.517110
PG17  14397.589247  21611.202228   6288.568938   -124.286045
PG19  18150.427105  19142.979588  -2191.226706   -458.002192
PG20  20950.582807 -14403.453089   7461.868977    500.552991
PG21   1101.739960 -26059.008159   5719.661021   -431.983150
PG22 -24410.633871  10182.390770  -2268.620912   -286.869320
PG23 -10584.609473  11272.771479 -21325.000726   -218.981759
PG24  14310.697278 -16791.414430  14469.761237    -45.882519
PG25  11688.504472 -15839.166930 -17881.575173   -536.521564
PG26 -19193.666755  -6812.935209 -17116.001509   -255.516534
PG27 -21755.887739  -9976.814339  11717.722001    366.583284
PG28   4370.887891  14332.074274  22559.199929    687.556422
PG29   3009.856409 -16819.581677 -20350.789362    498.432784
PG30    584.163239  24205.143535  10745.980252    104.816013
PG31  -9462.262562 -15434.647894 -19239.699065    142.689556
PG32 -15733.842504 -20670.964329   5736.518916   -532.506142
PJ01 -34500.124045  18901.519221 -10468.349475   -111.969996
PJ02 -24979.523827  32534.036454  -5540.497847     -0.081747
PJ03 -26091.287962  22950.112940  29013.431110      0.014621
PR01 -21274.449954  -8659.528212  11074.931667     21.886029
PR02 -24101.668764      8.217151  -8393.763750    294.548333
PR03 -11745.972651   8245.507461 -21064.767972    123.763110
PR04   7956.238393  11584.352102 -21273.137389    249.390162
PR05  22252.522694   8036.832952  -9556.696467   -245.539186
PR06  23752.127728   -923.120772   9201.803421    126.766110
PR07  11272.896271  -8423.195641  21295.106376    -29.747772
PR08  -7251.118353 -11626.684731  21561.105056     38.355738
PR09  18167.534906 -10791.824339  14344.311095     48.086491
PR10  15401.842238 -20200.886158  -2735.207421     17.937781
PR11   3407.339229 -17539.870518 -18208.537228    -21.510722
PR13 -17900.613758  11751.330616 -13882.611438     -7.351556
PR14 -15429.705073  20168.116881   2405.732380     24.582462
PR15  -6408.284965  18953.390359  15895.025316     -6.260284
PR16   9903.033961   5084.018135  22920.700398     85.283116
PR17  -3456.306470  16436.888966  19225.458994    108.091350
PR18   6320.528163  24116.763192   5256.414368    184.320658
PR19  12339.246465  18710.742472 -12169.612223    -44.180205
PR20  11296.622656   1014.352294 -22828.410495   -326.682959
PR21   3240.620161 -16568.408008 -19105.859534     29.643215
PR22  -7256.601203 -24296.127715  -3347.743751    -17.654487
PR23 -13114.720012 -15959.817740  14968.771129    135.444398
PR24 -11172.014661   -158.024747  22915.107952   -162.274038
PR26  11438.065159   1051.018639 -22760.952889     -1.208110
EOF
